[{"OBJECT_NAME":"SAOCOM 1B","OBJECT_ID":"2020-059A","EPOCH":"2026-03-06T22:57:01.124064","MEAN_MOTION":14.82173062,"ECCENTRICITY":0.00015046,"INCLINATION":97.8885,"RA_OF_ASC_NODE":253.2654,"ARG_OF_PERICENTER":81.2285,"MEAN_ANOMALY":278.9098,"EPHEMERIS_TYPE":0,"CLASSIFICATION_TYPE":"U","NORAD_CAT_ID":46265,"ELEMENT_SET_NO":999,"REV_AT_EPOCH":29834,"BSTAR":0.00017595012,"MEAN_MOTION_DOT":1.349e-5,"MEAN_MOTION_DDOT":0},{"OBJECT_NAME":"GEESAT-2 01","OBJECT_ID":"2024-023A","EPOCH":"2026-03-09T23:03:28.689408","MEAN_MOTION":14.8287513,"ECCENTRICITY":0.00052371,"INCLINATION":49.9934,"RA_OF_ASC_NODE":93.5493,"ARG_OF_PERICENTER":4.3324,"MEAN_ANOMALY":355.7659,"EPHEMERIS_TYPE":0,"CLASSIFICATION_TYPE":"U","NORAD_CAT_ID":58905,"ELEMENT_SET_NO":999,"REV_AT_EPOCH":11418,"BSTAR":0.00033261995,"MEAN_MOTION_DOT":2.499e-5,"MEAN_MOTION_DDOT":0}]
